{"type": "FeatureCollection", "features": [{"type": "Feature", "properties": {"rank": 1, "method": "BFS+Zoning", "n_grids": 40, "avg_micro": 71.07192277888488, "cluster_score": 110.66152885267975, "buildable_ha": 100.0, "final_score": 88.89472622391303, "avg_bcr": 0.4, "center_lat": 36.31008017786375, "center_lon": 127.39597708182609}, "geometry": {"type": "MultiPolygon", "coordinates": [[[[127.39528857064803, 36.30433221075188], [127.39528857064803, 36.30433221075188], [127.39807314867286, 36.30433461712578], [127.39807608144167, 36.30208074902003], [127.39529158353791, 36.3020783428433], [127.39529459609312, 36.29982447408293], [127.39251017863617, 36.299822003259465], [127.39250708596884, 36.30207587181736], [127.39250708596884, 36.302075871817365], [127.39250399295794, 36.30432973952345], [127.39528857064803, 36.30433221075188]]], [[[127.39250399295794, 36.30432973952345], [127.39250708596884, 36.30207587181736], [127.38972258874335, 36.30207333594223], [127.38972258874335, 36.30207333594223], [127.38693809187036, 36.302070735217946], [127.38693483861752, 36.30432460250314], [127.38971941561145, 36.30432720344052], [127.38971941561145, 36.30432720344052], [127.39250399295794, 36.30432973952345]]], [[[127.38692833102748, 36.30883233451791], [127.38692833102748, 36.30883233451791], [127.38692507669022, 36.31108619924747], [127.38970989410042, 36.31108880082428], [127.38970989410042, 36.31108880082428], [127.39249471186325, 36.31109133753068], [127.39249780590517, 36.30883747238013], [127.39249780590517, 36.30883747238013], [127.39250089960338, 36.30658360637772], [127.39250089960338, 36.30658360637772], [127.39250399295794, 36.30432973952345], [127.38971941561145, 36.304327203440536], [127.38971941561145, 36.30432720344052], [127.38693483861752, 36.30432460250314], [127.38693158500323, 36.30657846893645], [127.38693158500323, 36.30657846893645], [127.38692833102748, 36.30883233451791]]], [[[127.39250399295794, 36.30432973952347], [127.39250089960338, 36.30658360637773], [127.39250089960338, 36.30658360637773], [127.39249780590517, 36.30883747238013], [127.39249780590517, 36.30883747238013], [127.39249471186325, 36.31109133753068], [127.39249471186325, 36.31109133753068], [127.38970989410042, 36.31108880082429], [127.38970989410042, 36.31108880082429], [127.38692507669022, 36.31108619924748], [127.38692182199141, 36.31334006312514], [127.38970671955815, 36.31334266491511], [127.38970671955815, 36.31334266491511], [127.39249161747759, 36.31334520182935], [127.39249161747759, 36.31334520182935], [127.39527651574082, 36.31334767386784], [127.39527952996984, 36.31109380936664], [127.39527952996984, 36.31109380936664], [127.39527952996984, 36.31109380936664], [127.39527651574082, 36.31334767386784], [127.39527651574082, 36.31334767386784], [127.39527350117692, 36.31560153751713], [127.3980584799406, 36.315603944877076], [127.3980584799406, 36.31560394487708], [127.39527350117692, 36.31560153751714], [127.3952704862781, 36.317855400314535], [127.39805554521627, 36.31785780787171], [127.39805554521627, 36.31785780787171], [127.40084060448048, 36.31786015054245], [127.4008406044805, 36.31786015054245], [127.40362566406185, 36.31786242832673], [127.40362843843711, 36.31560856495358], [127.40362843843711, 36.31560856495358], [127.40363121250418, 36.31335470072853], [127.40363121250418, 36.31335470072853], [127.40363398626306, 36.31110083565163], [127.40084916717866, 36.31109855842715], [127.40084916717866, 36.31109855842714], [127.40363398626306, 36.31110083565163], [127.40363398626306, 36.31110083565163], [127.40641880565559, 36.311103048005585], [127.40642149895848, 36.308849181895575], [127.40363675971382, 36.30884696972288], [127.40363675971382, 36.30884696972288], [127.40363675971382, 36.30884696972287], [127.40363953285649, 36.30659310294231], [127.40085487405888, 36.30659082609096], [127.40085772702352, 36.30433695864515], [127.39807314867286, 36.30433461712578], [127.39807021557822, 36.30658848437973], [127.39528555742342, 36.30658607780865], [127.39528555742342, 36.30658607780865], [127.39528555742342, 36.30658607780865], [127.39528857064803, 36.30433221075189], [127.39250399295794, 36.30432973952347]], [[127.3980672821577, 36.30884235078186], [127.3980672821577, 36.30884235078186], [127.39806434841128, 36.31109621633212], [127.39806434841128, 36.31109621633212], [127.39806434841128, 36.311096216332125], [127.39806434841128, 36.311096216332125], [127.3980672821577, 36.30884235078186], [127.3980672821577, 36.30884235078186]], [[127.400846313263, 36.31335242331746], [127.39806141433893, 36.31335008103054], [127.39806141433893, 36.31335008103054], [127.400846313263, 36.31335242331745], [127.400846313263, 36.31335242331746]], [[127.40084345903031, 36.3156062873559], [127.40084345903031, 36.3156062873559], [127.400846313263, 36.31335242331746], [127.400846313263, 36.31335242331746], [127.40084345903031, 36.3156062873559]]], [[[127.38970671955815, 36.31334266491512], [127.3897035446632, 36.31559652815401], [127.39248852274814, 36.31559906527611], [127.39248852274814, 36.31559906527611], [127.39527350117692, 36.31560153751714], [127.39527651574082, 36.31334767386784], [127.39249161747759, 36.31334520182935], [127.39249161747759, 36.313345201829364], [127.38970671955815, 36.31334266491512]]], [[[127.39248542767486, 36.317852927870945], [127.3952704862781, 36.317855400314535], [127.39527350117692, 36.315601537517146], [127.39248852274814, 36.31559906527611], [127.39248542767486, 36.317852927870945]]], [[[127.40363953285649, 36.30659310294231], [127.40363675971382, 36.30884696972288], [127.40642149895848, 36.308849181895575], [127.40642419196217, 36.30659531493376], [127.40363953285649, 36.30659310294231]]], [[[127.40363398626306, 36.31110083565163], [127.40363121250418, 36.31335470072854], [127.4064161120535, 36.31335691326377], [127.40641880565562, 36.31110304800559], [127.40363398626306, 36.31110083565163]]], [[[127.39526747104429, 36.320109262259976], [127.39805261016588, 36.3201116700144], [127.39805554521627, 36.31785780787171], [127.3952704862781, 36.317855400314535], [127.39526747104429, 36.320109262259976]]]]}}, {"type": "Feature", "properties": {"rank": 2, "method": "BFS+Zoning", "n_grids": 30, "avg_micro": 69.73685083170376, "cluster_score": 105.65816884727778, "buildable_ha": 76.25000000000003, "final_score": 85.39237422013164, "avg_bcr": 0.4066666666666668, "center_lat": 36.31202479561512, "center_lon": 127.43732959747418}, "geometry": {"type": "MultiPolygon", "coordinates": [[[[127.43426701456912, 36.31112160366107], [127.43148219258505, 36.311120040013584], [127.43148219258505, 36.3111200400136], [127.42869737082003, 36.3111184114954], [127.42869531847333, 36.3133722780124], [127.42869531847333, 36.3133722780124], [127.4286932658986, 36.31562614367762], [127.43147824798663, 36.3156277724627], [127.43147627535873, 36.31788163740956], [127.43147627535873, 36.31788163740956], [127.43147627535873, 36.31788163740956], [127.43147824798663, 36.3156277724627], [127.4286932658986, 36.31562614367762], [127.42869121309585, 36.31788000849103], [127.42869121309585, 36.31788000849103], [127.42868916006502, 36.32013387245261], [127.43147430251167, 36.3201355015046], [127.43147430251167, 36.3201355015046], [127.43425944517752, 36.320137065664596], [127.43426133784078, 36.31788320144142], [127.43426133784078, 36.31788320144142], [127.43425944517752, 36.320137065664596], [127.43147430251167, 36.3201355015046], [127.43147232944544, 36.32238936474781], [127.43425755230398, 36.32239092903596], [127.43425755230398, 36.32239092903596], [127.43704277537284, 36.32239242842677], [127.43704458805365, 36.32013856493259], [127.43704458805365, 36.32013856493259], [127.43704640053306, 36.317884700586575], [127.43704640053306, 36.317884700586575], [127.43704821281116, 36.31563083538877], [127.43426323029378, 36.31562933636641], [127.43426323029378, 36.31562933636641], [127.43147824798663, 36.3156277724627], [127.4314802203954, 36.31337390666403], [127.4314802203954, 36.31337390666403], [127.43147824798663, 36.31562777246269], [127.43426323029378, 36.31562933636641], [127.43426323029378, 36.31562933636641], [127.43704821281116, 36.31563083538876], [127.43705002488794, 36.31337696933915], [127.43705002488794, 36.31337696933915], [127.43705002488794, 36.31337696933916], [127.43705002488794, 36.31337696933916], [127.43704821281116, 36.31563083538876], [127.43983319552989, 36.3156322695297], [127.4398349274406, 36.313378403362606], [127.4398349274406, 36.313378403362606], [127.4398349274406, 36.313378403362606], [127.44261983018568, 36.31337977250998], [127.44262148174688, 36.31112590537896], [127.43983665915894, 36.31112453634376], [127.43983665915894, 36.31112453634377], [127.4370518367634, 36.311123102437804], [127.4370518367634, 36.311123102437804], [127.43426701456914, 36.31112160366107], [127.43426512253657, 36.31337547043962], [127.43426512253654, 36.31337547043962], [127.43426512253654, 36.31337547043962], [127.4314802203954, 36.313373906664026], [127.4314802203954, 36.31337390666402], [127.43426512253654, 36.31337547043962], [127.43426701456914, 36.31112160366107], [127.4370518367634, 36.311123102437804], [127.4370518367634, 36.311123102437804], [127.43983665915894, 36.31112453634376], [127.43983839068491, 36.30887066847318], [127.43984012201854, 36.30661679975091], [127.43984012201854, 36.30661679975091], [127.43984185315985, 36.30436293017693], [127.43705727118224, 36.30436149662339], [127.43705545991054, 36.30661536607989], [127.43705545991051, 36.30661536607989], [127.43705364843758, 36.3088692346847], [127.43705364843758, 36.3088692346847], [127.43426890639151, 36.30886773603078], [127.43426701456912, 36.31112160366107]]], [[[127.44262643532973, 36.30436429887562], [127.44262643532973, 36.30436429887563], [127.44541101768306, 36.30436560271949], [127.44541258838893, 36.302111732074856], [127.4426280861572, 36.302110428337826], [127.4426280861572, 36.30211042833782], [127.43984358410881, 36.30210905975125], [127.43984185315985, 36.304362930176914], [127.44262643532973, 36.30436429887562]]], [[[127.44262643532973, 36.30436429887563], [127.44262643532973, 36.30436429887564], [127.43984185315985, 36.30436293017693], [127.43984012201854, 36.306616799750905], [127.43984012201854, 36.30661679975091], [127.43983839068491, 36.308870668473176], [127.43983839068491, 36.308870668473176], [127.43983665915897, 36.31112453634376], [127.44262148174688, 36.31112590537896], [127.44262313312461, 36.30887203739621], [127.44262313312461, 36.30887203739621], [127.44262478431888, 36.306618168561776], [127.44262478431888, 36.30661816856177], [127.44262478431888, 36.30661816856177], [127.44262313312461, 36.30887203739621], [127.44262313312461, 36.30887203739621], [127.44262148174688, 36.31112590537896], [127.44540630451827, 36.31112720954336], [127.44540787574773, 36.308873341453754], [127.44540787574773, 36.308873341453754], [127.44540944680264, 36.30661947251247], [127.44540944680264, 36.30661947251247], [127.44541101768306, 36.30436560271949], [127.44262643532973, 36.30436429887563]]], [[[127.44541101768306, 36.30436560271949], [127.44540944680264, 36.30661947251248], [127.44819410946094, 36.306620711603], [127.44819560021087, 36.30436684170849], [127.44541101768306, 36.30436560271949]]]]}}, {"type": "Feature", "properties": {"rank": 3, "method": "BFS+Zoning", "n_grids": 20, "avg_micro": 70.04666642228014, "cluster_score": 102.0354635638341, "buildable_ha": 57.500000000000014, "final_score": 82.85648052172107, "avg_bcr": 0.4600000000000001, "center_lat": 36.32925970986667, "center_lon": 127.42492046249023}, "geometry": {"type": "MultiPolygon", "coordinates": [[[[127.42311887586492, 36.320130419672715], [127.42033373412926, 36.32012859594485], [127.42033144029246, 36.322382458622315], [127.42311666222069, 36.32238428249959], [127.42311887586492, 36.320130419672715]]], [[[127.42032685185427, 36.32689018142155], [127.42032685185427, 36.32689018142155], [127.42032455725283, 36.329144041543266], [127.42311001981233, 36.329145865868846], [127.42311001981233, 36.329145865868846], [127.42589548261786, 36.3291476252812], [127.42589761678062, 36.32689376486592], [127.42589761678062, 36.32689376486592], [127.42589761678062, 36.32689376486592], [127.42589548261786, 36.3291476252812], [127.42311001981233, 36.329145865868846], [127.42310780518422, 36.33139972528807], [127.42589334821803, 36.33140148484456], [127.42589334821803, 36.33140148484456], [127.42867889148894, 36.33140317948251], [127.42868094566052, 36.32914931978034], [127.42589548261786, 36.3291476252812], [127.42589548261786, 36.3291476252812], [127.42868094566052, 36.32914931978034], [127.42868094566052, 36.32914931978034], [127.43146640893136, 36.32915094936622], [127.43146640893136, 36.32915094936622], [127.43425187242147, 36.32915251403886], [127.434253765926, 36.326898653223104], [127.4314683826553, 36.326897088678656], [127.4314683826553, 36.326897088678656], [127.42868299960388, 36.32689545922624], [127.42868299960388, 36.32689545922624], [127.42868505331906, 36.324641597820246], [127.42589975070628, 36.324639903598715], [127.42589975070628, 36.324639903598715], [127.42311444833057, 36.3246381444746], [127.42311444833057, 36.3246381444746], [127.42311444833057, 36.3246381444746], [127.42311666222069, 36.3223842824996], [127.42033144029246, 36.322382458622315], [127.4203291462008, 36.324636320447894], [127.4203291462008, 36.324636320447894], [127.42032685185427, 36.32689018142155]]], [[[127.4175343445152, 36.33364986968256], [127.42031996728512, 36.33365175923086], [127.42032226239647, 36.33139790081305], [127.42032226239647, 36.33139790081305], [127.42031996728512, 36.33365175923086], [127.42310559031003, 36.33365358385534], [127.42310559031003, 36.33365358385534], [127.42589121358101, 36.33365534355597], [127.42589121358101, 36.33365534355597], [127.42310559031003, 36.33365358385534], [127.42310337518977, 36.335907441570626], [127.42310337518977, 36.335907441570626], [127.42310115982342, 36.338161298433896], [127.42588694359551, 36.33816305842282], [127.42588907870686, 36.3359092014154], [127.42588907870686, 36.3359092014154], [127.42589121358101, 36.33365534355597], [127.42867683708916, 36.333657038332746], [127.42867889148894, 36.331403179482514], [127.42589334821803, 36.33140148484456], [127.42589334821803, 36.33140148484456], [127.42310780518422, 36.33139972528807], [127.42310780518422, 36.33139972528807], [127.42310780518422, 36.33139972528807], [127.42311001981233, 36.329145865868846], [127.42032455725283, 36.32914404154327], [127.42032226239647, 36.331397900813045], [127.41753671986366, 36.331396011419514], [127.4175343445152, 36.33364986968256]]], [[[127.43146640893136, 36.32915094936623], [127.42868094566052, 36.32914931978034], [127.42867889148894, 36.331403179482514], [127.43146443498813, 36.331404809201906], [127.43146640893136, 36.32915094936623]]]]}}, {"type": "Feature", "properties": {"rank": 4, "method": "BFS+Zoning", "n_grids": 7, "avg_micro": 68.0658748585914, "cluster_score": 89.29672602135182, "buildable_ha": 15.0, "final_score": 73.93936424198348, "avg_bcr": 0.34285714285714286, "center_lat": 36.29064427031508, "center_lon": 127.39113072110305}, "geometry": {"type": "MultiPolygon", "coordinates": [[[[127.38695760379964, 36.28854751361924], [127.38417358782661, 36.28854484935614], [127.38417025667395, 36.29079872153361], [127.38695435271454, 36.29080138601507], [127.38695435271454, 36.29080138601507], [127.38695435271454, 36.29080138601507], [127.38695110126824, 36.293055257559175], [127.38973527774645, 36.293057857431116], [127.38973844911631, 36.290803985673946], [127.39252254587032, 36.29080652051025], [127.39252254587032, 36.29080652051025], [127.39530664296775, 36.290808990523935], [127.39530965385008, 36.28855511750491], [127.39252563682028, 36.28855264769365], [127.39252563682028, 36.28855264769365], [127.38974162013385, 36.28855011306508], [127.38695760379964, 36.288547513619235], [127.38695760379964, 36.28854751361924]]], [[[127.3980907403997, 36.290811395714975], [127.39530664296775, 36.290808990523935], [127.39530664296775, 36.290808990523935], [127.39252254587032, 36.29080652051025], [127.39251945457698, 36.293060392475155], [127.39530363175095, 36.29306286269127], [127.39530363175095, 36.29306286269127], [127.39808780925945, 36.293065268079424], [127.3980907403997, 36.290811395714975]]]]}}, {"type": "Feature", "properties": {"rank": 5, "method": "BFS+Zoning", "n_grids": 7, "avg_micro": 67.94034608235482, "cluster_score": 89.13204278231785, "buildable_ha": 13.750000000000004, "final_score": 73.82408597465971, "avg_bcr": 0.31428571428571433, "center_lat": 36.2870889872108, "center_lon": 127.37721581946032}, "geometry": {"type": "MultiPolygon", "coordinates": [[[[127.37582868368301, 36.28402872212726], [127.37582868368301, 36.28402872212726], [127.37304482935151, 36.2840257990746], [127.37304117874041, 36.28627967202906], [127.37582511312148, 36.2862825953213], [127.37582511312148, 36.28628259532131], [127.37304117874041, 36.28627967202907], [127.37303752772375, 36.28853354413178], [127.37582154216328, 36.28853646766361], [127.37582154216328, 36.28853646766361], [127.37860555699952, 36.28853932637829], [127.37860904789925, 36.28628545380171], [127.38139298306477, 36.28628824747027], [127.38139639352707, 36.284034373813014], [127.37861253841116, 36.28403158037342], [127.37861253841116, 36.28403158037342], [127.37582868368301, 36.28402872212726]]], [[[127.37860555699952, 36.28853932637829], [127.37860555699952, 36.28853932637829], [127.37582154216328, 36.28853646766361], [127.37581797080836, 36.290790339154135], [127.378602065712, 36.290793198103124], [127.378602065712, 36.290793198103124], [127.38138616100349, 36.29079599222963], [127.3813895722236, 36.288542120275814], [127.37860555699952, 36.28853932637829]]]]}}, {"type": "Feature", "properties": {"rank": 6, "method": "BFS+Zoning", "n_grids": 6, "avg_micro": 70.12842394156586, "cluster_score": 90.59796572433784, "buildable_ha": 15.0, "final_score": 74.8502320340737, "avg_bcr": 0.39999999999999997, "center_lat": 36.32949870274785, "center_lon": 127.39339792193958}, "geometry": {"type": "Polygon", "coordinates": [[[127.39804086670306, 36.32912711006553], [127.39804380305803, 36.32687325133074], [127.3952584233328, 36.32687084298449], [127.3952584233328, 36.32687084298449], [127.39247304394272, 36.32686836973057], [127.39246994714972, 36.32912222806544], [127.39246994714972, 36.32912222806544], [127.39247304394272, 36.32686836973057], [127.38968766489663, 36.326865831569], [127.38968448788468, 36.32911968969595], [127.38968448788471, 36.32911968969595], [127.38968131051976, 36.33137354697084], [127.39246685001267, 36.33137608554828], [127.39246685001267, 36.331376085548285], [127.39246685001267, 36.331376085548285], [127.39246375253154, 36.33362994217904], [127.39524937260535, 36.33363241604084], [127.39525238984969, 36.33137855920745], [127.39525238984969, 36.33137855920745], [127.39525540675882, 36.329124701521984], [127.39246994714972, 36.329122228065444], [127.39246994714972, 36.329122228065444], [127.39525540675882, 36.329124701521984], [127.39525540675882, 36.329124701521984], [127.39804086670306, 36.32912711006553]]]}}, {"type": "Feature", "properties": {"rank": 7, "method": "BFS+Zoning", "n_grids": 4, "avg_micro": 67.93315832061292, "cluster_score": 84.33328839750028, "buildable_ha": 10.0, "final_score": 70.4649579052874, "avg_bcr": 0.4, "center_lat": 36.32856938270856, "center_lon": 127.40500520195174}, "geometry": {"type": "Polygon", "coordinates": [[[127.40639994415518, 36.326880086923175], [127.40361456347814, 36.32687787330011], [127.40361178756136, 36.32913173241353], [127.40361178756133, 36.32913173241353], [127.40361456347811, 36.32687787330011], [127.40082918310942, 36.32687559476929], [127.40082632697354, 36.32912945369605], [127.40361178756133, 36.32913173241353], [127.40360901133614, 36.33138559067496], [127.40639455246041, 36.33138780466072], [127.40639724845754, 36.32913394621796], [127.40639724845757, 36.32913394621796], [127.40639724845757, 36.32913394621796], [127.40918270965327, 36.32913609510927], [127.40918532513174, 36.326882235638486], [127.40639994415518, 36.326880086923175], [127.40639994415518, 36.326880086923175]]]}}]}