{"type": "FeatureCollection", "features": [{"type": "Feature", "properties": {"rank": 1, "method": "BFS+Zoning", "n_grids": 174, "avg_micro": 79.6772475897236, "cluster_score": 141.40463720855897, "buildable_ha": 435.6249999999999, "final_score": 100.54914916277687, "avg_bcr": 0.4005747126436781, "center_lat": 35.15969766234037, "center_lon": 126.86729715939335}, "geometry": {"type": "MultiPolygon", "coordinates": [[[[126.8358409359818, 35.15188557463928], [126.8358409359818, 35.15188557463928], [126.83309636410817, 35.15187049887139], [126.83307796954406, 35.15412464913601], [126.83307796954406, 35.15412464913601], [126.83305957293747, 35.156378798551906], [126.83580429619414, 35.15639387682487], [126.83580429619414, 35.15639387682487], [126.83578597324899, 35.158648026644656], [126.83578597324899, 35.158648026644656], [126.83576764826935, 35.16090217561576], [126.83851252497733, 35.160917194211], [126.83851252497733, 35.160917194211], [126.84125740371165, 35.16093215062306], [126.84125740371165, 35.16093215062306], [126.83851252497736, 35.160917194211], [126.83851252497736, 35.160917194211], [126.83576764826935, 35.16090217561576], [126.83574932125501, 35.16315632373818], [126.83849427368413, 35.16317134358101], [126.83849427368413, 35.16317134358101], [126.84123922813983, 35.16318630123549], [126.84123922813983, 35.1631863012355], [126.84123922813983, 35.1631863012355], [126.84122105054988, 35.165440450999334], [126.84396608275368, 35.16545534770265], [126.84396608275368, 35.16545534770264], [126.84671111696744, 35.16547018221215], [126.84671111696744, 35.16547018221215], [126.84945615318273, 35.165484954527706], [126.84945615318273, 35.165484954527706], [126.85220119139117, 35.165499664649154], [126.85220119139117, 35.16549966464916], [126.85220119139117, 35.16549966464916], [126.8521833147378, 35.16775381848296], [126.8521833147378, 35.16775381848296], [126.8521654360995, 35.17000797146838], [126.85491062777963, 35.170022621829126], [126.85491062777963, 35.170022621829126], [126.85765582143652, 35.170037209985146], [126.85765582143652, 35.170037209985146], [126.86040101706175, 35.17005173593629], [126.86040101706175, 35.17005173593629], [126.86040101706175, 35.17005173593629], [126.86038336370726, 35.17230589170842], [126.86312863704917, 35.172320356655916], [126.86312863704917, 35.17232035665591], [126.8658739123428, 35.172334759393074], [126.8658914141836, 35.170080601223376], [126.8631462146469, 35.1700661996824], [126.86316379029311, 35.16781204186078], [126.8604186684563, 35.16779757931595], [126.8604186684563, 35.16779757931595], [126.85767354857923, 35.167783054571274], [126.85767354857923, 35.167783054571274], [126.8576735485792, 35.167783054571274], [126.85769127375377, 35.16552889830917], [126.85769127375377, 35.16552889830917], [126.85769127375377, 35.16552889830916], [126.86043631789116, 35.165543421847424], [126.86045396536652, 35.16328926353074], [126.86045396536652, 35.16328926353074], [126.86047161088257, 35.161035104365915], [126.85772671819943, 35.161020583240266], [126.85770899696045, 35.16327474119881], [126.85770899696045, 35.16327474119882], [126.85770899696045, 35.16327474119882], [126.85496403052208, 35.163260156677524], [126.85494623158432, 35.165514312576356], [126.85494623158432, 35.165514312576356], [126.85496403052208, 35.163260156677524], [126.85496403052208, 35.163260156677524], [126.85496403052208, 35.163260156677524], [126.85770899696045, 35.16327474119881], [126.85772671819942, 35.16102058324026], [126.86047161088257, 35.161035104365915], [126.86047161088257, 35.161035104365915], [126.86321650552478, 35.16104956330721], [126.86323407336707, 35.158795402093226], [126.86323407336707, 35.158795402093226], [126.8632516392589, 35.156541240031224], [126.8632516392589, 35.156541240031224], [126.86323407336707, 35.15879540209322], [126.86323407336707, 35.15879540209322], [126.86321650552478, 35.1610495633072], [126.86596140211766, 35.161063960064], [126.865978894245, 35.15880979765414], [126.865978894245, 35.15880979765414], [126.86599638443033, 35.15655563439632], [126.8632516392589, 35.15654124003122], [126.86326920320052, 35.15428707712121], [126.86052453567724, 35.154272621782866], [126.86052453567724, 35.15427262178286], [126.85777987011238, 35.15425810427563], [126.85776215477519, 35.156512264778655], [126.8605068960377, 35.15652678349195], [126.8605068960377, 35.156526783491955], [126.85776215477519, 35.15651226477866], [126.85774443747093, 35.15876642443353], [126.85774443747093, 35.15876642443353], [126.85774443747093, 35.15876642443353], [126.85499962246953, 35.15875184233505], [126.85501741547967, 35.15649768389148], [126.85501741547967, 35.15649768389148], [126.85503520651434, 35.15424352459971], [126.85777987011238, 35.15425810427563], [126.85779758348276, 35.15200394292452], [126.85779758348276, 35.15200394292452], [126.85781529488654, 35.149749780725315], [126.85781529488654, 35.149749780725315], [126.85783300432394, 35.14749561767807], [126.85508856776791, 35.147481041635466], [126.85508856776791, 35.147481041635466], [126.85234413318646, 35.147466403439786], [126.85232627240475, 35.149720564059784], [126.85232627240475, 35.149720564059784], [126.85232627240475, 35.149720564059784], [126.84958176413444, 35.149705862489796], [126.84958176413444, 35.149705862489796], [126.84683725785573, 35.14969109876187], [126.84681924373058, 35.15194525608565], [126.8495638256893, 35.15196002104018], [126.8495638256893, 35.15196002104018], [126.8495638256893, 35.15196002104019], [126.84681924373058, 35.15194525608565], [126.84681924373058, 35.15194525608565], [126.84407466377206, 35.15193042896815], [126.84407466377206, 35.15193042896814], [126.84133008582216, 35.151915539687806], [126.84131191832063, 35.1541696936944], [126.84131191832063, 35.1541696936944], [126.84129374880185, 35.15642384685249], [126.84403847813608, 35.15643873860689], [126.8440384781361, 35.15643873860689], [126.8467832094794, 35.15645356818812], [126.8467832094794, 35.15645356818812], [126.8467832094794, 35.156453568188134], [126.8440384781361, 35.156438738606894], [126.84402038230462, 35.15869289215358], [126.84402038230462, 35.15869289215358], [126.8440022844639, 35.16094704485178], [126.8440022844639, 35.16094704485178], [126.84398418461365, 35.16320119670148], [126.84398418461365, 35.16320119670148], [126.84398418461365, 35.163201196701486], [126.84398418461365, 35.163201196701486], [126.8440022844639, 35.16094704485178], [126.8440022844639, 35.16094704485178], [126.84402038230462, 35.15869289215358], [126.84127557726559, 35.15867799916205], [126.84127557726559, 35.158677999162045], [126.84402038230462, 35.15869289215358], [126.84403847813608, 35.156438738606894], [126.84129374880183, 35.156423846852505], [126.84129374880183, 35.156423846852505], [126.83854902148504, 35.156408892925114], [126.83854902148504, 35.156408892925114], [126.83854902148504, 35.15640889292511], [126.84129374880183, 35.15642384685249], [126.8413119183206, 35.1541696936944], [126.84131191832063, 35.1541696936944], [126.84133008582216, 35.151915539687806], [126.83858550988927, 35.151900588244814], [126.8385672667, 35.15415474100924], [126.83856726669997, 35.15415474100924], [126.83858550988927, 35.15190058824482], [126.8358409359818, 35.15188557463928], [126.83585925282482, 35.14963142227356], [126.83311475663008, 35.149616347758084], [126.83313314710999, 35.14736219579612], [126.83038872862753, 35.1473470603811], [126.83037026247735, 35.149601211085525], [126.83037026247735, 35.149601211085525], [126.83035179427678, 35.15185536094124], [126.83309636410817, 35.15187049887138], [126.83309636410817, 35.15187049887139], [126.8358409359818, 35.15188557463928]], [[126.85498182748374, 35.1610059999304], [126.85498182748374, 35.16100599993041], [126.85223693874396, 35.16099135443649], [126.8522190660598, 35.163245509967], [126.8522190660598, 35.163245509967], [126.8522190660598, 35.163245509966984], [126.84947410358204, 35.163230801067364], [126.84947410358204, 35.163230801067364], [126.84947410358204, 35.163230801067364], [126.84949205198843, 35.16097664675865], [126.84674716722562, 35.160961876897034], [126.84674716722562, 35.16096187689703], [126.84949205198843, 35.16097664675864], [126.84949205198843, 35.16097664675864], [126.84949205198843, 35.16097664675864], [126.84947410358204, 35.163230801067364], [126.8522190660598, 35.163245509966984], [126.85223693874396, 35.16099135443648], [126.85498182748374, 35.1610059999304], [126.85499962246953, 35.15875184233505], [126.85499962246953, 35.15875184233505], [126.85498182748374, 35.1610059999304], [126.85772671819942, 35.16102058324026], [126.85772671819942, 35.16102058324026], [126.85498182748374, 35.1610059999304]], [[126.84676518935295, 35.15870772296678], [126.84676518935295, 35.15870772296678], [126.84950999840214, 35.15872249160153], [126.84950999840214, 35.15872249160152], [126.85225480944379, 35.15873719805766], [126.85227267815958, 35.15648304083057], [126.8522726781596, 35.15648304083057], [126.85225480944379, 35.15873719805766], [126.85225480944379, 35.15873719805766], [126.85225480944379, 35.15873719805766], [126.84950999840214, 35.15872249160153], [126.84950999840214, 35.15872249160153], [126.84676518935295, 35.15870772296678], [126.84676518935295, 35.15870772296678]], [[126.84954588525237, 35.15421417874228], [126.84954588525237, 35.15421417874228], [126.85229054489153, 35.154228882755206], [126.85230840963983, 35.1519747238316], [126.85230840963983, 35.1519747238316], [126.85230840963983, 35.1519747238316], [126.85505299557379, 35.151989364459766], [126.85507078265825, 35.149735203471664], [126.85507078265825, 35.149735203471664], [126.85507078265825, 35.14973520347168], [126.85507078265825, 35.14973520347168], [126.85505299557379, 35.151989364459766], [126.85505299557379, 35.151989364459766], [126.85503520651434, 35.15424352459971], [126.85229054489153, 35.154228882755206], [126.85229054489153, 35.15422888275521], [126.84954588525237, 35.15421417874228], [126.84952794282339, 35.15646833559607], [126.84952794282336, 35.15646833559607], [126.84954588525234, 35.15421417874228], [126.84954588525237, 35.15421417874228]], [[126.835822617105, 35.154139726156394], [126.835822617105, 35.154139726156394], [126.83856726669997, 35.15415474100924], [126.83856726669997, 35.15415474100924], [126.835822617105, 35.154139726156394]]], [[[126.84407466377206, 35.15193042896814], [126.84409275357702, 35.149676272876135], [126.84134825130668, 35.14966138483273], [126.84133008582216, 35.151915539687806], [126.84407466377206, 35.15193042896814]]], [[[126.86055980908122, 35.14976429582057], [126.85781529488654, 35.149749780725315], [126.85779758348276, 35.15200394292452], [126.85779758348276, 35.15200394292452], [126.85777987011238, 35.15425810427563], [126.86052453567724, 35.15427262178286], [126.86052453567724, 35.154272621782866], [126.86326920320052, 35.15428707712121], [126.86326920320052, 35.15428707712121], [126.8660138726738, 35.15430147029057], [126.86603135897568, 35.15204730533691], [126.8632867651921, 35.152032913363236], [126.8632867651921, 35.152032913363236], [126.86054217335833, 35.15201845922573], [126.86054217335833, 35.152018459225715], [126.8632867651921, 35.15203291336323], [126.8632867651921, 35.15203291336323], [126.86603135897568, 35.15204730533691], [126.86604884333613, 35.14979313953535], [126.86330432523388, 35.14977874875729], [126.86330432523388, 35.14977874875729], [126.86055980908122, 35.14976429582057], [126.86054217335833, 35.152018459225715], [126.86054217335833, 35.152018459225715], [126.86055980908122, 35.14976429582057]]], [[[126.86040101706175, 35.17005173593629], [126.85765582143652, 35.17003720998515], [126.85765582143652, 35.170037209985146], [126.85491062777963, 35.170022621829126], [126.85489282291226, 35.17227677518302], [126.85763809232547, 35.17229136455074], [126.85763809232547, 35.172291364550745], [126.86038336370726, 35.17230589170842], [126.86040101706175, 35.17005173593629]]], [[[126.85763809232547, 35.172291364550745], [126.85489282291226, 35.17227677518302], [126.85487501606792, 35.174530927688544], [126.85762036124588, 35.174545518268026], [126.85763809232547, 35.172291364550745]]], [[[126.87146854181863, 35.15883840223741], [126.8714512011218, 35.16109256702354], [126.87419610351621, 35.16110677722599], [126.87421336849748, 35.15885261125947], [126.87421336849748, 35.15885261125947], [126.87423063156191, 35.156598444445216], [126.87148588059024, 35.15658423660345], [126.87148588059024, 35.15658423660345], [126.86874113154357, 35.15656996658712], [126.86874113154357, 35.156569966587114], [126.86599638443033, 35.15655563439632], [126.86597889424503, 35.15880979765414], [126.868723717065, 35.15882413103558], [126.86870630065282, 35.16107829463617], [126.8714512011218, 35.16109256702354], [126.87146854181863, 35.15883840223741], [126.87146854181863, 35.15883840223741]]], [[[126.86594390804807, 35.163318121625885], [126.86594390804807, 35.163318121625885], [126.86594390804807, 35.163318121625885], [126.86596140211766, 35.16106396006401], [126.8632165055248, 35.161049563307216], [126.86321650552478, 35.161049563307216], [126.86047161088257, 35.161035104365915], [126.86045396536652, 35.16328926353074], [126.86319893573186, 35.16330372367315], [126.86319893573186, 35.16330372367315], [126.86319893573186, 35.16330372367315], [126.86045396536652, 35.16328926353074], [126.86043631789116, 35.16554342184744], [126.86318136398802, 35.16555788319102], [126.86316379029311, 35.16781204186078], [126.86316379029311, 35.16781204186078], [126.8631462146469, 35.1700661996824], [126.8658914141836, 35.170080601223376], [126.8658914141836, 35.170080601223376], [126.8658914141836, 35.170080601223376], [126.8658739123428, 35.172334759393074], [126.86861918957982, 35.17234909991977], [126.86861918957982, 35.17234909991978], [126.8713644687517, 35.17236337823587], [126.8713644687517, 35.172363378235865], [126.8741097498501, 35.17237759434119], [126.87412702441867, 35.17012343261388], [126.87412702441867, 35.17012343261388], [126.87414429706935, 35.16786927003868], [126.87414429706935, 35.16786927003868], [126.87414429706935, 35.16786927003867], [126.87414429706935, 35.16786927003867], [126.87412702441867, 35.17012343261388], [126.87412702441867, 35.17012343261388], [126.8741097498501, 35.17237759434119], [126.8768550328666, 35.17239174823563], [126.87687223167735, 35.17013758533278], [126.87687223167735, 35.17013758533278], [126.87688942857861, 35.1678834215821], [126.87688942857861, 35.1678834215821], [126.87690662357062, 35.16562925698364], [126.87690662357062, 35.16562925698364], [126.87690662357062, 35.16562925698364], [126.87688942857861, 35.167883421582104], [126.87688942857861, 35.167883421582104], [126.87687223167735, 35.17013758533278], [126.8796174408455, 35.17015167584581], [126.8796174408455, 35.17015167584581], [126.87687223167735, 35.17013758533278], [126.8768550328666, 35.17239174823563], [126.8796003177928, 35.17240583991904], [126.8796174408455, 35.17015167584581], [126.8823626519147, 35.170165704152836], [126.8823626519147, 35.170165704152836], [126.88510786487657, 35.170179670253695], [126.88512483452831, 35.167925503007595], [126.8823796973165, 35.1679115380667], [126.8823796973165, 35.1679115380667], [126.88512483452831, 35.167925503007595], [126.88514180229606, 35.16567133491389], [126.88514180229606, 35.16567133491389], [126.88515876817995, 35.16341716597259], [126.88515876817995, 35.16341716597259], [126.88514180229606, 35.16567133491389], [126.88788686565005, 35.16568523649893], [126.88790375580052, 35.16343106640294], [126.89064874529632, 35.16344490464237], [126.89066555784632, 35.16119073254942], [126.88792064407578, 35.16117689545947], [126.88790375580052, 35.16343106640294], [126.88790375580052, 35.16343106640294], [126.88792064407578, 35.16117689545947], [126.88517573218023, 35.161162996183734], [126.88515876817995, 35.16341716597259], [126.88515876817995, 35.16341716597259], [126.88517573218023, 35.161162996183734], [126.88517573218023, 35.161162996183734], [126.88519269429709, 35.158908825547336], [126.88244786000138, 35.158894865245706], [126.88244786000138, 35.158894865245706], [126.87970302759726, 35.15888084276377], [126.87970302759726, 35.15888084276377], [126.87972013924673, 35.15662667360436], [126.87972013924673, 35.15662667360436], [126.87970302759726, 35.15888084276377], [126.88244786000138, 35.158894865245706], [126.88244786000138, 35.158894865245706], [126.88519269429709, 35.158908825547336], [126.88519269429709, 35.158908825547336], [126.88517573218023, 35.161162996183734], [126.88792064407578, 35.16117689545946], [126.88792064407578, 35.16117689545947], [126.89066555784632, 35.16119073254942], [126.89068236852975, 35.15893655960909], [126.89068236852975, 35.15893655960909], [126.89069917734678, 35.15668238582134], [126.89069917734678, 35.15668238582134], [126.8907159842976, 35.15442821118624], [126.8907159842976, 35.15442821118624], [126.89069917734678, 35.15668238582134], [126.89344394155827, 35.156696158437015], [126.89346067280887, 35.1544419826578], [126.89620536317771, 35.15445569195883], [126.89622201687874, 35.15220151419346], [126.89347740220191, 35.152187806031314], [126.89346067280887, 35.1544419826578], [126.89346067280887, 35.1544419826578], [126.89347740220191, 35.15218780603132], [126.89073278938247, 35.1521740357038], [126.89073278938247, 35.152174035703794], [126.88798817842878, 35.15216020321103], [126.88798817842878, 35.15216020321103], [126.89073278938247, 35.152174035703794], [126.89073278938247, 35.152174035703794], [126.89347740220191, 35.15218780603131], [126.89349412973756, 35.14993362855756], [126.89074959260154, 35.14991985937403], [126.89074959260154, 35.14991985937403], [126.8880050573311, 35.149906028030415], [126.88798817842878, 35.15216020321103], [126.8852435693493, 35.152146308553164], [126.8852435693493, 35.152146308553164], [126.88526052393459, 35.14989213452685], [126.88251599242048, 35.1498781788635], [126.8824989621524, 35.15213235173034], [126.8824989621524, 35.15213235173034], [126.8824819299933, 35.15438652374966], [126.88522661288144, 35.154400481732026], [126.88797129765233, 35.15441437754427], [126.88797129765233, 35.15441437754427], [126.8907159842976, 35.154428211186236], [126.8907159842976, 35.15442821118624], [126.88797129765233, 35.15441437754428], [126.88797129765233, 35.15441437754428], [126.88522661288144, 35.15440048173203], [126.88520965453075, 35.15665465406343], [126.88520965453075, 35.15665465406343], [126.88522661288144, 35.154400481732026], [126.8824819299933, 35.15438652374966], [126.88246489594303, 35.15664069492146], [126.88246489594303, 35.15664069492146], [126.8824819299933, 35.15438652374967], [126.87973724899639, 35.15437250359731], [126.87972013924673, 35.15662667360436], [126.87697538445023, 35.15661259011222], [126.87695819709315, 35.15886675810164], [126.87695819709315, 35.15886675810164], [126.87694100782768, 35.16112092524338], [126.87968591404777, 35.16113501107555], [126.87968591404777, 35.16113501107555], [126.88243082216808, 35.16114903472239], [126.88243082216808, 35.161149034722406], [126.87968591404777, 35.16113501107555], [126.87968591404777, 35.16113501107555], [126.87694100782768, 35.16112092524338], [126.87694100782768, 35.16112092524338], [126.87419610351621, 35.161106777225996], [126.87419610351621, 35.16110677722599], [126.8714512011218, 35.16109256702354], [126.8714512011218, 35.16109256702354], [126.86870630065282, 35.16107829463617], [126.86868888230676, 35.16333245738882], [126.8714338584995, 35.16334673096181], [126.8714338584995, 35.16334673096182], [126.86868888230676, 35.163332457388826], [126.86867146202664, 35.16558661929355], [126.86592641203599, 35.16557228233976], [126.86590891408123, 35.16782644220558], [126.86590891408123, 35.16782644220558], [126.86592641203599, 35.16557228233976], [126.86592641203599, 35.16557228233976], [126.86592641203599, 35.16557228233976], [126.86867146202664, 35.16558661929355], [126.86868888230676, 35.163332457388826], [126.86868888230676, 35.163332457388826], [126.86870630065282, 35.16107829463617], [126.86870630065282, 35.16107829463617], [126.868723717065, 35.15882413103558], [126.86597889424503, 35.15880979765415], [126.86596140211766, 35.16106396006401], [126.86596140211766, 35.16106396006401], [126.86594390804807, 35.163318121625885]], [[126.86867146202664, 35.16558661929355], [126.86865403981227, 35.167840780350275], [126.86865403981227, 35.167840780350275], [126.86867146202664, 35.16558661929355], [126.86867146202664, 35.16558661929355]], [[126.87141651395157, 35.16560089405221], [126.87141651395157, 35.16560089405221], [126.87141651395157, 35.1656008940522], [126.87416156780235, 35.16561510661561], [126.87416156780235, 35.165615106615626], [126.87416156780235, 35.165615106615626], [126.87416156780235, 35.165615106615626], [126.87141651395157, 35.16560089405221], [126.87141651395157, 35.16560089405221]], [[126.8796516812479, 35.16564334515611], [126.8796516812479, 35.16564334515611], [126.8796516812479, 35.16564334515611], [126.8796516812479, 35.16564334515611], [126.8796516812479, 35.16564334515611]], [[126.88241378244298, 35.163403203351464], [126.88241378244298, 35.16340320335146], [126.88241378244298, 35.16340320335146], [126.88239674082587, 35.1656573711329], [126.88239674082587, 35.1656573711329], [126.88239674082587, 35.16565737113291], [126.88239674082587, 35.16565737113291], [126.88241378244298, 35.163403203351464], [126.88241378244298, 35.163403203351464]], [[126.88795441500147, 35.15666855103011], [126.88793753047602, 35.1589227236685], [126.88793753047602, 35.1589227236685], [126.88793753047602, 35.1589227236685], [126.88795441500147, 35.15666855103011], [126.88795441500147, 35.15666855103011]], [[126.87138181907788, 35.17010921768926], [126.86863661566338, 35.17009494055904], [126.86863661566338, 35.17009494055903], [126.86863661566338, 35.17009494055903], [126.87138181907788, 35.17010921768925], [126.87138181907788, 35.17010921768925], [126.87138181907788, 35.17010921768926]], [[126.87966879859805, 35.16338917853969], [126.87966879859805, 35.16338917853969], [126.87692381665356, 35.16337509153739], [126.87692381665356, 35.16337509153739], [126.87417883661792, 35.16336094234472], [126.87417883661792, 35.16336094234471], [126.87417883661792, 35.16336094234471], [126.87417883661792, 35.16336094234472], [126.87692381665356, 35.16337509153739], [126.87692381665356, 35.16337509153739], [126.87966879859805, 35.16338917853969]], [[126.87963456199714, 35.167897510924824], [126.8823796973165, 35.167911538066704], [126.8823796973165, 35.167911538066704], [126.87963456199714, 35.167897510924824], [126.87963456199714, 35.167897510924824]]], [[[126.8824989621524, 35.15213235173034], [126.87975435684648, 35.152118332742674], [126.87973724899639, 35.15437250359731], [126.8824819299933, 35.15438652374966], [126.8824989621524, 35.15213235173034]]], [[[126.8823626519147, 35.17016570415284], [126.8796174408455, 35.17015167584582], [126.8796003177928, 35.172405839919044], [126.88234560462024, 35.17241986939126], [126.8823626519147, 35.17016570415284]]], [[[126.8880050573311, 35.149906028030415], [126.88526052393459, 35.149892134526844], [126.8852435693493, 35.15214630855316], [126.88798817842878, 35.152160203211025], [126.8880050573311, 35.149906028030415]]], [[[126.90445587196942, 35.152242265686276], [126.90447229676938, 35.14998808368826], [126.90172775225508, 35.14997456314637], [126.90171125177089, 35.15222874402107], [126.90445587196942, 35.152242265686276]]], [[[126.90447229676938, 35.14998808368826], [126.90445587196942, 35.15224226568628], [126.90445587196942, 35.15224226568628], [126.90443944534572, 35.15449644683729], [126.90718414306082, 35.1545099074548], [126.90720049399171, 35.152255725185555], [126.90720049399171, 35.152255725185555], [126.90720049399171, 35.152255725185555], [126.90994511782935, 35.152269122518796], [126.90996139126025, 35.15001493828962], [126.90721684310724, 35.15000154206939], [126.90721684310724, 35.15000154206939], [126.90447229676938, 35.14998808368826]]], [[[126.89623866873079, 35.149947335580904], [126.89349412973756, 35.14993362855757], [126.89347740220191, 35.152187806031314], [126.89622201687874, 35.15220151419346], [126.89623866873079, 35.149947335580904]]], [[[126.89620536317771, 35.15445569195883], [126.89895005539573, 35.154469339089175], [126.89893347554617, 35.1567235171411], [126.8989334755462, 35.1567235171411], [126.8989334755462, 35.1567235171411], [126.89618870762754, 35.15670986887699], [126.89617205022797, 35.15896404494787], [126.89617205022797, 35.15896404494787], [126.89618870762754, 35.15670986887699], [126.89344394155827, 35.156696158437015], [126.89342720844988, 35.158950333368914], [126.89342720844988, 35.158950333368914], [126.8934104734835, 35.16120450745349], [126.89615539097882, 35.16121822017152], [126.89615539097882, 35.16121822017152], [126.89890031032397, 35.161231870703375], [126.89891689385567, 35.158977694345836], [126.89891689385567, 35.158977694345836], [126.89891689385567, 35.158977694345836], [126.90166173932454, 35.15899128156265], [126.90167824530582, 35.156737103229254], [126.90442301689801, 35.156750627141285], [126.90443944534569, 35.1544964468373], [126.90443944534572, 35.1544964468373], [126.90445587196942, 35.15224226568628], [126.90171125177089, 35.15222874402108], [126.90169474945453, 35.154482924048715], [126.90169474945453, 35.154482924048715], [126.90167824530582, 35.15673710322924], [126.90167824530582, 35.15673710322924], [126.90169474945453, 35.15448292404871], [126.90169474945453, 35.15448292404871], [126.90171125177089, 35.15222874402108], [126.89896663340454, 35.152215160190096], [126.89898320957275, 35.149960980443886], [126.89623866873079, 35.149947335580904], [126.89622201687874, 35.15220151419346], [126.89622201687874, 35.15220151419346], [126.89620536317771, 35.15445569195883]]], [[[126.89342720844988, 35.15895033336892], [126.89344394155827, 35.156696158437015], [126.89069917734678, 35.15668238582134], [126.89068236852975, 35.15893655960909], [126.89342720844988, 35.15895033336892]]], [[[126.88788686565005, 35.16568523649894], [126.88514180229606, 35.1656713349139], [126.88512483452831, 35.16792550300761], [126.88786997362416, 35.1679394057474], [126.88788686565005, 35.16568523649894]]]]}}, {"type": "Feature", "properties": {"rank": 2, "method": "BFS+Zoning", "n_grids": 47, "avg_micro": 78.78726805978145, "cluster_score": 124.537470823736, "buildable_ha": 117.49999999999993, "final_score": 88.7421326934008, "avg_bcr": 0.3999999999999998, "center_lat": 35.12725195265501, "center_lon": 126.85270854380052}, "geometry": {"type": "MultiPolygon", "coordinates": [[[[126.84427354120125, 35.12713466529874], [126.84152979526473, 35.12711978962097], [126.8415116499382, 35.12937395295949], [126.84425547147029, 35.12938882987353], [126.84425547147029, 35.12938882987354], [126.8415116499382, 35.1293739529595], [126.8415116499382, 35.1293739529595], [126.83876783042088, 35.12935901393441], [126.83874960747575, 35.13161317518322], [126.83874960747575, 35.13161317518322], [126.83873138250722, 35.1338673355837], [126.83873138250722, 35.1338673355837], [126.83871315551505, 35.13612149513583], [126.84145720186885, 35.13613643788558], [126.84147535324047, 35.133882277091836], [126.84421932598896, 35.13389715647859], [126.84420125023813, 35.1361513185088], [126.84694530061448, 35.13616613700535], [126.84696330074429, 35.133911973743835], [126.84696330074429, 35.133911973743835], [126.84694530061448, 35.13616613700535], [126.84694530061448, 35.13616613700535], [126.84692729848598, 35.13842029941867], [126.84967142649062, 35.13843505701458], [126.84967142649062, 35.13843505701459], [126.85241555648575, 35.13844975247837], [126.85243340735478, 35.13619558761779], [126.8496893529895, 35.13618089337505], [126.8496893529895, 35.13618089337504], [126.8496893529895, 35.13618089337504], [126.84970727749808, 35.1339267288874], [126.85245125624195, 35.133941421909164], [126.85246910314741, 35.13168725535252], [126.84972520001662, 35.13167256355166], [126.84972520001662, 35.13167256355166], [126.84698129887568, 35.13165780963416], [126.84698129887568, 35.13165780963416], [126.84423739973293, 35.13164299360016], [126.84423739973293, 35.13164299360016], [126.84149350259685, 35.1316281154498], [126.84149350259685, 35.1316281154498], [126.84423739973293, 35.13164299360016], [126.84423739973293, 35.13164299360016], [126.84698129887568, 35.13165780963416], [126.8469992950088, 35.12940364467637], [126.8469992950088, 35.12940364467637], [126.84698129887568, 35.131657809634156], [126.84972520001662, 35.13167256355165], [126.84972520001662, 35.13167256355165], [126.85246910314741, 35.1316872553525], [126.85248694807147, 35.12943308794788], [126.85248694807147, 35.12943308794788], [126.85250479101428, 35.127178919695275], [126.85524854492516, 35.12719354694803], [126.85523077757883, 35.12944771641625], [126.85797460905903, 35.12946228277283], [126.85799230080866, 35.12720811209416], [126.85799230080866, 35.12720811209416], [126.85800999059407, 35.12495394056766], [126.85526631029889, 35.124939376631914], [126.85526631029889, 35.12493937663193], [126.85252263197611, 35.12492475059472], [126.85252263197611, 35.12492475059472], [126.84977895563411, 35.124910062456216], [126.8497610390844, 35.12716423033604], [126.8497610390844, 35.12716423033604], [126.84974312054534, 35.129418397367864], [126.84974312054534, 35.129418397367864], [126.84974312054534, 35.129418397367864], [126.84974312054534, 35.129418397367864], [126.8497610390844, 35.12716423033604], [126.84701728914393, 35.12714947887049], [126.8469992950088, 35.12940364467637], [126.8469992950088, 35.12940364467637], [126.84701728914393, 35.12714947887049], [126.84701728914393, 35.12714947887049], [126.84703528128126, 35.124895312216516], [126.84703528128126, 35.124895312216516], [126.84705327142103, 35.1226411447145], [126.84430967464482, 35.122626333604764], [126.84429160892601, 35.12488049987582], [126.84429160892601, 35.12488049987582], [126.84427354120125, 35.12713466529874]]], [[[126.83604230944387, 35.12708985194791], [126.83602401292677, 35.12934401279843], [126.83876783042088, 35.12935901393441], [126.83876783042088, 35.12935901393441], [126.8415116499382, 35.1293739529595], [126.84152979526473, 35.12711978962097], [126.83878605134281, 35.127104851837316], [126.83878605134281, 35.127104851837316], [126.83604230944387, 35.12708985194791]]], [[[126.8359874137976, 35.13385233195435], [126.83873138250722, 35.1338673355837], [126.83874960747575, 35.13161317518322], [126.83600571437808, 35.13159817280059], [126.8359874137976, 35.13385233195435]]], [[[126.8580453642731, 35.12044559497133], [126.8580453642731, 35.12044559497133], [126.8580276784155, 35.122699768193364], [126.85802767841548, 35.122699768193364], [126.85800999059407, 35.12495394056765], [126.86075367285329, 35.12496844240179], [126.86077128509456, 35.12271426882235], [126.86077128509456, 35.12271426882235], [126.86077128509456, 35.12271426882235], [126.86077128509456, 35.12271426882235], [126.86075367285329, 35.124968442401794], [126.86349735706808, 35.12498288213419], [126.86349735706808, 35.12498288213419], [126.86349735706808, 35.12498288213419], [126.86349735706808, 35.12498288213419], [126.86075367285329, 35.124968442401794], [126.86073605865639, 35.12722261513352], [126.86347981845994, 35.12723705606598], [126.86347981845994, 35.12723705606598], [126.86622358021093, 35.12725143489139], [126.86624104323012, 35.1249972597647], [126.86624104323012, 35.1249972597647], [126.86624104323012, 35.1249972597647], [126.868984731331, 35.12501157529316], [126.86900211683057, 35.122757398129174], [126.8662585043105, 35.1227430837904], [126.8662585043105, 35.1227430837904], [126.86351489372902, 35.12272870735473], [126.86351489372902, 35.122728707354725], [126.8662585043105, 35.1227430837904], [126.8662585043105, 35.1227430837904], [126.86900211683057, 35.12275739812917], [126.86901950039993, 35.12050322011768], [126.86901950039993, 35.12050322011768], [126.86903688203928, 35.11824904125873], [126.86629342065558, 35.11823472929911], [126.86627596345222, 35.120488906968525], [126.86627596345222, 35.120488906968525], [126.86627596345222, 35.120488906968525], [126.86353242844292, 35.120474531727645], [126.86353242844292, 35.120474531727645], [126.86353242844292, 35.120474531727645], [126.86353242844292, 35.120474531727645], [126.86627596345222, 35.120488906968525], [126.86629342065558, 35.118234729299125], [126.86629342065558, 35.118234729299125], [126.86631087592072, 35.11598055078219], [126.8635674920306, 35.11596617793067], [126.8635674920306, 35.11596617793067], [126.86082411008684, 35.115951742997915], [126.86080650371112, 35.11820591912038], [126.86080650371112, 35.11820591912038], [126.86080650371112, 35.11820591912038], [126.85806304816712, 35.118191420901546], [126.8580453642731, 35.12044559497133]]], [[[126.85528407370022, 35.12268520546795], [126.85526631029889, 35.124939376631914], [126.85800999059407, 35.12495394056766], [126.85802767841548, 35.12269976819337], [126.85528407370022, 35.12268520546795]]], [[[126.84701728914393, 35.12714947887049], [126.8497610390844, 35.12716423033604], [126.84977895563411, 35.1249100624562], [126.84703528128126, 35.124895312216516], [126.84701728914393, 35.12714947887049]]], [[[126.85248694807147, 35.12943308794788], [126.85246910314744, 35.13168725535252], [126.85521300825967, 35.13170188503657], [126.85523077757884, 35.12944771641625], [126.85248694807147, 35.12943308794788]]]]}}, {"type": "Feature", "properties": {"rank": 3, "method": "BFS+Zoning", "n_grids": 18, "avg_micro": 78.41900236684072, "cluster_score": 113.05399745828139, "buildable_ha": 45.000000000000014, "final_score": 80.70370133758257, "avg_bcr": 0.4000000000000001, "center_lat": 35.129326892970084, "center_lon": 126.88007966509244}, "geometry": {"type": "MultiPolygon", "coordinates": [[[[126.87723296593867, 35.12279996856287], [126.87448934765305, 35.122785840515554], [126.87447211331568, 35.12504002004343], [126.8772158071827, 35.12505414926494], [126.8772158071827, 35.12505414926493], [126.87995950295499, 35.12506821638385], [126.87995950295499, 35.12506821638385], [126.88270320062415, 35.12508222140003], [126.88272020821668, 35.122828038365036], [126.87997658612933, 35.12281403451274], [126.87997658612933, 35.12281403451274], [126.87723296593867, 35.12279996856287], [126.87723296593867, 35.12279996856287]]], [[[126.8772158071827, 35.12505414926494], [126.87447211331568, 35.12504002004343], [126.87445487706462, 35.12729419872388], [126.87445487706462, 35.12729419872388], [126.87443763889968, 35.12954837655691], [126.87718148395471, 35.12956250812703], [126.87716431948229, 35.131816686286996], [126.8799082420498, 35.131830756913416], [126.8799082420498, 35.131830756913416], [126.87716431948229, 35.131816686286996], [126.87714715310398, 35.13407086359957], [126.87989115128667, 35.13408493539527], [126.87989115128667, 35.13408493539527], [126.88263515136708, 35.134098945067606], [126.8826521665148, 35.13184476542161], [126.8826521665148, 35.13184476542161], [126.8826521665148, 35.131844765421604], [126.88539609286893, 35.13185871181145], [126.88539609286893, 35.131858711811454], [126.8826521665148, 35.13184476542161], [126.88263515136708, 35.134098945067606], [126.87989115128667, 35.13408493539527], [126.87987405862584, 35.13633911302976], [126.88261813433006, 35.136353123866286], [126.88263515136708, 35.134098945067606], [126.88537915333683, 35.134112892616415], [126.88539609286893, 35.131858711811454], [126.88814002110377, 35.1318725960828], [126.88815688314773, 35.12961841327686], [126.88541303052033, 35.12960453015927], [126.88541303052033, 35.12960453015927], [126.88266917977342, 35.12959058492834], [126.88266917977342, 35.12959058492834], [126.88266917977342, 35.12959058492834], [126.88268619114312, 35.127336403587805], [126.88268619114312, 35.127336403587805], [126.88270320062415, 35.12508222140003], [126.87995950295499, 35.125068216383866], [126.87995950295496, 35.125068216383866], [126.8772158071827, 35.12505414926494], [126.8772158071827, 35.12505414926494]], [[126.87719864652144, 35.12730832911967], [126.87719864652144, 35.12730832911967], [126.87718148395471, 35.129562508127016], [126.87718148395471, 35.129562508127016], [126.87719864652144, 35.12730832911967], [126.87719864652144, 35.12730832911967], [126.87719864652144, 35.12730832911967]]], [[[126.87714715310398, 35.13407086359957], [126.87712998481953, 35.1363250400647], [126.87987405862584, 35.13633911302977], [126.87989115128667, 35.13408493539528], [126.87714715310398, 35.13407086359957]]]]}}, {"type": "Feature", "properties": {"rank": 4, "method": "BFS+Zoning", "n_grids": 10, "avg_micro": 77.90111576553258, "cluster_score": 105.92092335151595, "buildable_ha": 25.0, "final_score": 75.71054946284677, "avg_bcr": 0.4, "center_lat": 35.17195200725026, "center_lon": 126.83650140058626}, "geometry": {"type": "MultiPolygon", "coordinates": [[[[126.83569432800137, 35.16991876301285], [126.83571266112124, 35.16766461743674], [126.83296755925996, 35.167649532899986], [126.83296755925996, 35.16764953289999], [126.83022245944251, 35.16763438616486], [126.83020397483058, 35.16988852922988], [126.83294915039396, 35.169903677223154], [126.83293073948393, 35.17215782069742], [126.83567599284589, 35.17217290774018], [126.83567599284589, 35.172172907740176], [126.8384212482437, 35.17218793257407], [126.8384395076444, 35.169933786598875], [126.8384395076444, 35.169933786598875], [126.8384577650179, 35.16767963977497], [126.83571266112124, 35.167664617436735], [126.83569432800137, 35.16991876301285], [126.83569432800137, 35.16991876301285]], [[126.83294915039396, 35.16990367722315], [126.83569432800137, 35.16991876301286], [126.83569432800137, 35.16991876301286], [126.83294915039396, 35.16990367722315], [126.83294915039396, 35.16990367722315]]], [[[126.84118468931464, 35.16994874798107], [126.8384395076444, 35.169933786598875], [126.8384212482437, 35.17218793257407], [126.84116650566894, 35.17220289519895], [126.84118468931464, 35.16994874798107]]], [[[126.83565765565459, 35.17442705161865], [126.83563931642718, 35.17668119464827], [126.83838472335978, 35.17669622197809], [126.83840298681558, 35.174442077700476], [126.83840298681558, 35.174442077700476], [126.83840298681558, 35.174442077700476], [126.84114832000424, 35.17445704156813], [126.84116650566894, 35.17220289519896], [126.8384212482437, 35.17218793257407], [126.8384212482437, 35.17218793257407], [126.83567599284589, 35.17217290774018], [126.83565765565459, 35.17442705161865], [126.83565765565459, 35.17442705161865]]], [[[126.83838472335978, 35.1766962219781], [126.83563931642718, 35.17668119464827], [126.83562097516352, 35.17893533682901], [126.8383664578761, 35.1789503654069], [126.83838472335978, 35.1766962219781]]]]}}, {"type": "Feature", "properties": {"rank": 5, "method": "BFS+Zoning", "n_grids": 9, "avg_micro": 78.23772382617203, "cluster_score": 105.26007631496134, "buildable_ha": 22.5, "final_score": 75.24795653725853, "avg_bcr": 0.4, "center_lat": 35.11379941307811, "center_lon": 126.85642096247159}, "geometry": {"type": "MultiPolygon", "coordinates": [[[[126.8581337641119, 35.10917471614545], [126.85811608806999, 35.111428893605954], [126.85537286112846, 35.11141433693118], [126.85535510758588, 35.11366851233404], [126.85809841006537, 35.113683070218826], [126.85809841006537, 35.113683070218826], [126.86084171450779, 35.1136975660278], [126.86085931697421, 35.11144338821009], [126.86085931697421, 35.11144338821009], [126.86087691748631, 35.10918920954481], [126.8581337641119, 35.10917471614545]]], [[[126.85261180707768, 35.11365389237363], [126.85259397601763, 35.11590806571353], [126.85533735207197, 35.1159226868892], [126.85533735207197, 35.1159226868892], [126.85808073009781, 35.115937245984036], [126.85808073009781, 35.11593724598402], [126.86082411008684, 35.11595174299791], [126.86084171450779, 35.1136975660278], [126.85809841006537, 35.113683070218826], [126.85809841006537, 35.11368307021883], [126.85535510758588, 35.11366851233406], [126.85535510758588, 35.11366851233405], [126.85535510758588, 35.11366851233405], [126.85537286112846, 35.11141433693119], [126.85262963615801, 35.111399718185915], [126.85261180707768, 35.11365389237363], [126.85261180707768, 35.11365389237363]]], [[[126.85259397601763, 35.11590806571353], [126.85261180707768, 35.11365389237362], [126.84986850854918, 35.11363921033768], [126.84985060194322, 35.11589338245721], [126.85259397601763, 35.11590806571353]]], [[[126.85808073009781, 35.115937245984036], [126.85533735207197, 35.1159226868892], [126.85531959458655, 35.118176860596584], [126.85806304816712, 35.11819142090155], [126.85808073009781, 35.115937245984036]]]]}}, {"type": "Feature", "properties": {"rank": 6, "method": "BFS+Zoning", "n_grids": 6, "avg_micro": 77.65992697309164, "cluster_score": 100.32781298386666, "buildable_ha": 15.0, "final_score": 71.79537220549227, "avg_bcr": 0.39999999999999997, "center_lat": 35.132149797387626, "center_lon": 126.86892966451241}, "geometry": {"type": "MultiPolygon", "coordinates": [[[[126.86344473540112, 35.131745401386496], [126.86618864835519, 35.131759782601904], [126.8662061152527, 35.129505609170465], [126.86346227790435, 35.12949122915008], [126.86344473540112, 35.131745401386496]]], [[[126.87442039882069, 35.13180255354248], [126.87443763889968, 35.12954837655691], [126.87169379575874, 35.129534182874025], [126.87167648007336, 35.13178835868005], [126.87442039882069, 35.13180255354248]]], [[[126.86617117951822, 35.13401395518569], [126.86617117951822, 35.13401395518569], [126.8689151700261, 35.13402827547353], [126.8689151700261, 35.13402827547353], [126.87165916246529, 35.13404253363856], [126.87167648007336, 35.13178835868006], [126.86893256324872, 35.13177410169982], [126.86893256324872, 35.13177410169982], [126.86618864835519, 35.13175978260192], [126.86618864835519, 35.13175978260192], [126.86344473540112, 35.131745401386496], [126.86342719095, 35.13399957277517], [126.86617117951822, 35.13401395518569]]], [[[126.87165916246529, 35.13404253363856], [126.87440315682738, 35.13405672968061], [126.87442039882069, 35.13180255354249], [126.87167648007336, 35.131788358680055], [126.87165916246529, 35.13404253363856]]]]}}]}