{"type": "FeatureCollection", "features": [{"type": "Feature", "properties": {"rank": 1, "method": "BFS+Zoning", "n_grids": 37, "avg_micro": 79.61631243805623, "cluster_score": 123.05799187002499, "buildable_ha": 95.00000000000003, "final_score": 94.39819851480044, "avg_bcr": 0.4108108108108109, "center_lat": 36.33384571623192, "center_lon": 127.43878307126067}, "geometry": {"type": "MultiPolygon", "coordinates": [[[[127.43318131834589, 36.32546688014527], [127.43317939405529, 36.327720741453184], [127.43596480673625, 36.327722266155064], [127.43596665081306, 36.325468404722244], [127.43318131834589, 36.32546688014527]]], [[[127.42482099215853, 36.32996963793766], [127.42481882674564, 36.332223497135104], [127.42760439921261, 36.33222521684834], [127.42760439921261, 36.33222521684834], [127.42760439921261, 36.33222521684834], [127.42760231379958, 36.33447907533472], [127.43038796673875, 36.33448073026301], [127.4303899719113, 36.33222687164109], [127.4303899719113, 36.33222687164109], [127.43039197686109, 36.32997301216722], [127.42760648439399, 36.32997135751003], [127.42760648439399, 36.329971357510026], [127.43039197686109, 36.329973012167216], [127.43039197686109, 36.32997301216721], [127.43039197686109, 36.32997301216721], [127.4303899719113, 36.33222687164108], [127.4303899719113, 36.33222687164108], [127.43038796673875, 36.334480730263], [127.43317361990069, 36.334482320265465], [127.43317361990069, 36.334482320265465], [127.43595927327648, 36.33448384534207], [127.43595927327648, 36.33448384534208], [127.43317361990069, 36.334482320265465], [127.43317169475478, 36.336736178165665], [127.43595742838001, 36.336737703367206], [127.43595742838001, 36.336737703367206], [127.43874316221023, 36.33673916363756], [127.43874316221023, 36.33673916363756], [127.44152889623652, 36.33674055897672], [127.44152889623652, 36.33674055897672], [127.44431463044992, 36.33674188938468], [127.44710036484157, 36.3367431548614], [127.44710036484157, 36.3367431548614], [127.44710036484157, 36.3367431548614], [127.44431463044992, 36.33674188938468], [127.44431463044992, 36.33674188938469], [127.44152889623652, 36.33674055897673], [127.44152721165186, 36.33899441638379], [127.44431302612372, 36.33899574690073], [127.44431302612372, 36.33899574690072], [127.44431302612372, 36.33899574690072], [127.44431142161928, 36.34124960356477], [127.44709731653673, 36.341250869248825], [127.44709731653673, 36.34125086924883], [127.44988321162353, 36.341252069991015], [127.44988465559324, 36.33899821312494], [127.44709884077382, 36.33899701248111], [127.44709884077382, 36.3389970124811], [127.44988465559324, 36.33899821312494], [127.44988609940253, 36.33674435540689], [127.44988609940253, 36.33674435540689], [127.44988754305145, 36.33449049683693], [127.44988754305145, 36.33449049683693], [127.44988898653995, 36.332236637415036], [127.44988898653995, 36.332236637415036], [127.44989042986813, 36.329982777141225], [127.44710493602909, 36.32998157689071], [127.44710493602909, 36.32998157689071], [127.4443194423593, 36.329980311724924], [127.4443194423593, 36.32998031172492], [127.44153394886767, 36.32997898164386], [127.4415322648444, 36.33223284160674], [127.4443178385677, 36.33223417179676], [127.44431623459792, 36.33448803101668], [127.44431623459792, 36.33448803101668], [127.4443178385677, 36.33223417179676], [127.4415322648444, 36.33223284160674], [127.4415322648444, 36.33223284160674], [127.4415322648444, 36.33223284160674], [127.44153394886767, 36.32997898164387], [127.43874845556311, 36.32997758664755], [127.43874845556311, 36.32997758664755], [127.43596296245457, 36.32997612673599], [127.43596111796799, 36.332229986465], [127.43317554483272, 36.332228461513296], [127.43317554483272, 36.332228461513296], [127.43317554483272, 36.332228461513296], [127.43317746955091, 36.32997460190919], [127.43317746955091, 36.32997460190919], [127.43317939405529, 36.327720741453184], [127.43317939405529, 36.327720741453184], [127.43318131834589, 36.32546688014527], [127.4303959860925, 36.3254652906637], [127.43039398158814, 36.32771915184141], [127.4276085693437, 36.32771749731976], [127.42760648439399, 36.329971357510026], [127.42482099215853, 36.32996963793766]], [[127.43874492685723, 36.33448530549282], [127.43874669130818, 36.33223144649615], [127.43874669130818, 36.33223144649615], [127.43874492685723, 36.33448530549282], [127.43874492685723, 36.33448530549282]]], [[[127.42481882674564, 36.33222349713511], [127.42481666109212, 36.3344773554806], [127.42481666109212, 36.3344773554806], [127.42481449519804, 36.336731212974115], [127.42481449519804, 36.336731212974115], [127.4248123290633, 36.338985069615624], [127.4275981422784, 36.3389867897515], [127.42760022815486, 36.336732932969106], [127.42760022815486, 36.336732932969106], [127.42760231379958, 36.33447907533472], [127.42760231379958, 36.33447907533472], [127.42760439921261, 36.33222521684834], [127.42481882674564, 36.33222349713511]]], [[[127.43317169475478, 36.33673617816567], [127.43316976939495, 36.33899003521389], [127.43595558327858, 36.338991560540364], [127.43595742838001, 36.33673770336721], [127.43317169475478, 36.33673617816567]]], [[[127.44988609940253, 36.33674435540689], [127.44988609940253, 36.33674435540689], [127.44988465559324, 36.33899821312494], [127.4526704705731, 36.3389993488322], [127.45267183412389, 36.33674549102115], [127.45267183412389, 36.33674549102115], [127.45267319752321, 36.334491632358166], [127.44988754305145, 36.334490496836935], [127.44988609940253, 36.33674435540689]]]]}}, {"type": "Feature", "properties": {"rank": 2, "method": "BFS+Zoning", "n_grids": 20, "avg_micro": 73.87025594325999, "cluster_score": 107.60520369820405, "buildable_ha": 37.500000000000014, "final_score": 83.58124679452578, "avg_bcr": 0.3000000000000001, "center_lat": 36.28862585883019, "center_lon": 127.45381451919486}, "geometry": {"type": "MultiPolygon", "coordinates": [[[[127.44156422931694, 36.28940935665685], [127.44434828016132, 36.289410684777714], [127.44434828016135, 36.289410684777714], [127.44713233118354, 36.28941194807897], [127.44713385153092, 36.287158071721116], [127.44713385153095, 36.287158071721116], [127.44713233118354, 36.28941194807897], [127.44991638237467, 36.28941314656062], [127.44991638237467, 36.289413146560626], [127.44991638237467, 36.289413146560626], [127.44991494192982, 36.29166702216518], [127.45269907335242, 36.29166815592011], [127.45270043372581, 36.289414280222644], [127.45270043372581, 36.289414280222644], [127.45270179394805, 36.28716040367367], [127.44991782265949, 36.287159270104546], [127.44991782265949, 36.287159270104546], [127.44713385153095, 36.287158071721116], [127.44713537170945, 36.28490419451177], [127.44435148080339, 36.28490293141756], [127.44434988057125, 36.287156808523385], [127.44434988057125, 36.287156808523385], [127.44434988057125, 36.287156808523385], [127.44435148080339, 36.28490293141756], [127.44156759007511, 36.284901603514385], [127.44156590978936, 36.287155480511366], [127.44156590978936, 36.287155480511366], [127.44156422931694, 36.28940935665685]]], [[[127.45270179394805, 36.28716040367366], [127.45270179394805, 36.28716040367366], [127.45270043372581, 36.28941428022264], [127.45548448522803, 36.28941534906502], [127.4554857653877, 36.28716147242845], [127.45548576538773, 36.28716147242845], [127.45548704540519, 36.2849075949404], [127.45548704540519, 36.2849075949404], [127.45548704540519, 36.2849075949404], [127.45548704540519, 36.2849075949404], [127.45548576538773, 36.28716147242845], [127.4582697369696, 36.287162476368906], [127.4582697369696, 36.287162476368906], [127.46105370868476, 36.28716341549502], [127.4610548285948, 36.284909537847724], [127.45827093693333, 36.28490859879858], [127.45827093693333, 36.28490859879858], [127.4582721367638, 36.282654720376804], [127.45548832528047, 36.28265371660089], [127.45548832528047, 36.28265371660089], [127.45270451393931, 36.282652648021276], [127.45270315401923, 36.2849065262732], [127.45270315401922, 36.2849065262732], [127.45270179394805, 36.28716040367366]]], [[[127.45269907335242, 36.29166815592011], [127.45269771282791, 36.293922030766055], [127.45548192448202, 36.29392309978364], [127.45548192448202, 36.29392309978365], [127.45826613627837, 36.29392410397095], [127.45826733664212, 36.29167022895513], [127.45548320492615, 36.291669224850104], [127.45548320492615, 36.29166922485009], [127.45269907335242, 36.29166815592011]]], [[[127.4582697369696, 36.287162476368906], [127.45826853687252, 36.28941635308775], [127.46105258865032, 36.289417292290835], [127.46105370868476, 36.28716341549502], [127.4582697369696, 36.287162476368906]]], [[[127.46105146849142, 36.29167116823516], [127.46105146849142, 36.29167116823517], [127.46383560046517, 36.291672042690244], [127.46383664055253, 36.28941816667425], [127.46105258865032, 36.28941729229085], [127.46105258865032, 36.289417292290835], [127.45826853687252, 36.28941635308775], [127.45826733664212, 36.29167022895511], [127.46105146849142, 36.29167116823516]]], [[[127.45826493578129, 36.29617797813524], [127.46104922780032, 36.29617891756924], [127.4610503482081, 36.293925043327974], [127.4610503482081, 36.293925043327974], [127.46105146849142, 36.29167116823517], [127.45826733664212, 36.29167022895513], [127.45826613627837, 36.29392410397095], [127.4582661362784, 36.29392410397095], [127.45826493578129, 36.29617797813524]]]]}}, {"type": "Feature", "properties": {"rank": 3, "method": "BFS+Zoning", "n_grids": 15, "avg_micro": 77.86949631027504, "cluster_score": 110.25450940172917, "buildable_ha": 41.25, "final_score": 85.43576078699337, "avg_bcr": 0.44, "center_lat": 36.34778765769052, "center_lon": 127.44848595922716}, "geometry": {"type": "MultiPolygon", "coordinates": [[[[127.44152384192107, 36.343502128641944], [127.43873786709283, 36.34350073295986], [127.43873610166148, 36.345754587696604], [127.43873610166148, 36.345754587696604], [127.43873433603396, 36.348008441581285], [127.44152047144148, 36.34800983749199], [127.44152215677488, 36.345755983492985], [127.44152215677488, 36.345755983492985], [127.44152215677488, 36.345755983492985], [127.44152215677488, 36.345755983492985], [127.44152047144148, 36.348009837491986], [127.44430660703622, 36.34801116844489], [127.44430660703622, 36.34801116844489], [127.4470927428093, 36.34801243443997], [127.4470912178947, 36.3502662877996], [127.4470912178947, 36.3502662877996], [127.44708969281069, 36.35252014030716], [127.44987598936822, 36.35252134154115], [127.44987598936822, 36.35252134154115], [127.45266228608627, 36.35252247780666], [127.45266228608627, 36.352522477806666], [127.45544858295592, 36.352523549103665], [127.45544986710394, 36.35026969631695], [127.45544986710394, 36.35026969631695], [127.45545115110932, 36.34801584267817], [127.45266501485476, 36.34801477155663], [127.45266365054631, 36.350268625107674], [127.45266365054631, 36.350268625107674], [127.45266365054631, 36.35026862510767], [127.45266365054631, 36.35026862510767], [127.45266501485476, 36.34801477155663], [127.45266501485476, 36.34801477155663], [127.45266637901166, 36.34576091715353], [127.44988032320285, 36.34575978116717], [127.4498788787518, 36.348013635477216], [127.44987887875178, 36.348013635477216], [127.44988032320285, 36.34575978116717], [127.44709426755449, 36.345758580228285], [127.44709426755449, 36.345758580228285], [127.44430821207554, 36.34575731433688], [127.44430821207554, 36.34575731433688], [127.44430821207554, 36.34575731433688], [127.44430981693654, 36.34350345937683], [127.44152384192107, 36.34350212864194], [127.44152384192107, 36.343502128641944]]], [[[127.45266501485476, 36.34801477155663], [127.45545115110932, 36.34801584267817], [127.45545243497202, 36.345761988187355], [127.45545243497202, 36.345761988187355], [127.4554537186921, 36.34350813284452], [127.45266774301699, 36.34350706189842], [127.45266637901166, 36.34576091715353], [127.45266637901166, 36.34576091715353], [127.45266501485476, 36.34801477155663]]]]}}, {"type": "Feature", "properties": {"rank": 4, "method": "BFS+Zoning", "n_grids": 9, "avg_micro": 77.74007469261714, "cluster_score": 104.59054525993672, "buildable_ha": 22.5, "final_score": 81.47098588773865, "avg_bcr": 0.4, "center_lat": 36.34261148305923, "center_lon": 127.41753443431251}, "geometry": {"type": "MultiPolygon", "coordinates": [[[[127.42202426944627, 36.341237140186564], [127.42202651608885, 36.3389832845433], [127.41924070336398, 36.338981434534574], [127.41923837645425, 36.3412352900263], [127.42202426944627, 36.341237140186564]]], [[[127.4164548908976, 36.33897951958946], [127.41366907869865, 36.338977539707955], [127.41366659125471, 36.34123139488065], [127.4136641035344, 36.343485249201265], [127.41645007627646, 36.343487229407124], [127.41645248372075, 36.341233374924336], [127.4164548908976, 36.33897951958946]]], [[[127.4164548908976, 36.33897951958946], [127.41645248372075, 36.341233374924336], [127.41645248372075, 36.341233374924336], [127.41645007627646, 36.343487229407124], [127.41923604928597, 36.343489144665966], [127.41923604928597, 36.343489144665966], [127.42202202255407, 36.34349099497778], [127.42202426944627, 36.341237140186564], [127.41923837645425, 36.3412352900263], [127.41924070336398, 36.33898143453458], [127.4164548908976, 36.33897951958946]]], [[[127.41366161553772, 36.34573910266979], [127.41644766856469, 36.345741083037844], [127.41644766856469, 36.345741083037844], [127.41923372185916, 36.345742998453545], [127.41923604928597, 36.34348914466597], [127.41645007627646, 36.34348722940713], [127.41645007627646, 36.34348722940713], [127.4136641035344, 36.34348524920127], [127.41366161553772, 36.34573910266979]]], [[[127.41923372185916, 36.34574299845356], [127.41644766856466, 36.345741083037844], [127.41644526058539, 36.347994935816445], [127.41923139417375, 36.347996851389034], [127.41923372185916, 36.34574299845356]]]]}}, {"type": "Feature", "properties": {"rank": 5, "method": "BFS+Zoning", "n_grids": 4, "avg_micro": 76.6709182211952, "cluster_score": 95.18048060614409, "buildable_ha": 10.0, "final_score": 74.88394063008381, "avg_bcr": 0.4, "center_lat": 36.35645700672126, "center_lon": 127.43245823158765}, "geometry": {"type": "MultiPolygon", "coordinates": [[[[127.4303699101576, 36.35476541951922], [127.4331562858854, 36.35476701069415], [127.43315821274311, 36.352513159610375], [127.43037191733609, 36.35251156856576], [127.4303699101576, 36.35476541951922]]], [[[127.4303679027561, 36.35701926962053], [127.4303679027561, 36.35701926962053], [127.43036589513157, 36.359273118869666], [127.43315243152769, 36.35927471030522], [127.43315243152769, 36.35927471030522], [127.43593896813798, 36.35927623675642], [127.43594081508522, 36.357022387251966], [127.43315435881361, 36.35702086092577], [127.43315435881361, 36.357020860925765], [127.43315435881361, 36.357020860925765], [127.4331562858854, 36.35476701069415], [127.4303699101576, 36.35476541951922], [127.4303679027561, 36.35701926962053]]]]}}]}