{"type": "FeatureCollection", "features": [{"type": "Feature", "properties": {"rank": 1, "method": "BFS+Zoning", "n_grids": 37, "avg_micro": 45.83809317481931, "cluster_score": 70.84909517296501, "buildable_ha": 95.0, "final_score": 60.9584297078198, "avg_bcr": 0.41081081081081083, "center_lat": 36.32822696949948, "center_lon": 127.38080287533501}, "geometry": {"type": "MultiPolygon", "coordinates": [[[[127.37393043829871, 36.31838211343346], [127.37392680860154, 36.32063597348425], [127.37671196440152, 36.32063887849753], [127.37671551391344, 36.31838501820876], [127.37393043829871, 36.31838211343346]]], [[[127.37671551391344, 36.31838501820876], [127.37671196440152, 36.32063887849754], [127.37949712059583, 36.320641718617985], [127.37949712059583, 36.320641718617985], [127.37671196440152, 36.32063887849754], [127.37670841449523, 36.322892737934275], [127.37670841449523, 36.322892737934275], [127.37670486419455, 36.32514659651894], [127.37670486419455, 36.32514659651894], [127.37391954799737, 36.325143691029645], [127.3739159170903, 36.32739754852419], [127.37670131349941, 36.327400454251524], [127.3766977624098, 36.329654311131996], [127.3766977624098, 36.329654311131996], [127.3766977624098, 36.329654311132], [127.3739122857798, 36.32965140516664], [127.37390865406587, 36.33190526095693], [127.37112309760954, 36.33190228983412], [127.37111938525348, 36.334156144528855], [127.37390502194843, 36.33415911589506], [127.37390138942747, 36.33641296998102], [127.3766871067736, 36.33641587666058], [127.3766871067736, 36.336415876660574], [127.3794728245144, 36.33641871841009], [127.37947629654009, 36.33416486385328], [127.37669065904694, 36.334162022336535], [127.37669421092568, 36.33190816716036], [127.37669421092568, 36.33190816716036], [127.37669421092568, 36.33190816716036], [127.37947976818005, 36.331911008444344], [127.37948323943435, 36.32965715218325], [127.37948323943435, 36.32965715218325], [127.37948671030304, 36.32740329507006], [127.37948671030304, 36.32740329507006], [127.37948671030304, 36.32740329507006], [127.37948671030304, 36.32740329507006], [127.37948323943435, 36.32965715218326], [127.38226871684454, 36.32965992832038], [127.38226871684454, 36.329659928320375], [127.3850541946314, 36.329662639543336], [127.3850541946314, 36.329662639543336], [127.38783967278606, 36.32966528585211], [127.38784290299172, 36.32741142807265], [127.3850575050581, 36.32740878198065], [127.3850575050581, 36.32740878198065], [127.38506081511706, 36.325154923565876], [127.3822754977633, 36.325152212787096], [127.38227210749226, 36.327406070979784], [127.38227210749226, 36.327406070979784], [127.38227210749226, 36.327406070979784], [127.38227210749226, 36.327406070979784], [127.3822754977633, 36.325152212787096], [127.38227888765772, 36.322898353742346], [127.38227888765773, 36.322898353742346], [127.38228227717558, 36.32064449384556], [127.38228227717558, 36.32064449384556], [127.38506743413187, 36.32064720418024], [127.38507074308781, 36.3183933432094], [127.38507074308781, 36.3183933432094], [127.38507405167618, 36.31613948138658], [127.38228905508171, 36.316136771495955], [127.38228566631689, 36.31839063309676], [127.38228566631689, 36.31839063309676], [127.38228566631689, 36.31839063309676], [127.37950058992246, 36.31838785809653], [127.37950058992246, 36.31838785809653], [127.37671551391344, 36.31838501820876]]], [[[127.37113794291032, 36.32288686253357], [127.37113423220356, 36.325140720636895], [127.37391954799737, 36.325143691029645], [127.37392317850113, 36.322889832682996], [127.37113794291032, 36.32288686253357]]], [[[127.37113052108455, 36.327394577888114], [127.3739159170903, 36.3273975485242], [127.37391954799737, 36.325143691029645], [127.37113423220356, 36.325140720636895], [127.37113052108455, 36.327394577888114]]], [[[127.37946935210297, 36.33867257211472], [127.3794728245144, 36.33641871841011], [127.3766871067736, 36.33641587666058], [127.3766871067736, 36.33641587666058], [127.37390138942747, 36.33641296998102], [127.37389775650293, 36.33866682321477], [127.37668355410558, 36.33866973013244], [127.37668355410558, 36.338669730132445], [127.37946935210297, 36.33867257211472]]], [[[127.37389775650293, 36.33866682321479], [127.37389412317474, 36.34092067559631], [127.37668000104286, 36.34092358275208], [127.37668355410558, 36.338669730132445], [127.37389775650293, 36.33866682321479]]], [[[127.37950405886372, 36.31613399672307], [127.37950058992246, 36.31838785809653], [127.38228566631689, 36.31839063309676], [127.38228905508171, 36.316136771495955], [127.37950405886372, 36.31613399672307]]], [[[127.38783967278606, 36.32966528585211], [127.39062515129962, 36.329667867246656], [127.39062830128418, 36.32741400925575], [127.38784290299172, 36.327411428072644], [127.38783967278606, 36.32966528585211]]], [[[127.39062830128418, 36.32741400925575], [127.39062515129962, 36.32966786724666], [127.39062515129962, 36.32966786724666], [127.39062515129962, 36.329667867246656], [127.38783967278606, 36.32966528585211], [127.38783644222153, 36.3319191427795], [127.3906220009651, 36.331921724385516], [127.3906220009651, 36.33192172438552], [127.3906220009651, 36.33192172438552], [127.39061885028055, 36.33417558067228], [127.39340448961308, 36.334178097564894], [127.39340756005866, 36.331924241071974], [127.39340756005866, 36.331924241071974], [127.39341063016313, 36.32967038372697], [127.39341063016313, 36.32967038372697], [127.39341369992658, 36.32741652552992], [127.39062830128418, 36.32741400925575]]], [[[127.39341063016313, 36.32967038372697], [127.39340756005866, 36.331924241071974], [127.39619311949333, 36.33192669283884], [127.39619610936774, 36.32967283529301], [127.39341063016313, 36.32967038372697]]], [[[127.37946935210297, 36.33867257211471], [127.38225515048615, 36.33867534916159], [127.38225854264095, 36.33642149522951], [127.3794728245144, 36.336418718410094], [127.37946935210297, 36.33867257211471]]], [[[127.38225515048615, 36.33867534916159], [127.3850409492462, 36.33867806127302], [127.38504426114434, 36.33642420711882], [127.38225854264095, 36.336421495229516], [127.38225515048615, 36.33867534916159]]]]}}, {"type": "Feature", "properties": {"rank": 2, "method": "BFS+Zoning", "n_grids": 30, "avg_micro": 46.152841164344686, "cluster_score": 69.92608106569394, "buildable_ha": 87.50000000000001, "final_score": 60.312319832730054, "avg_bcr": 0.46666666666666673, "center_lat": 36.363471910119834, "center_lon": 127.38658361413353}, "geometry": {"type": "MultiPolygon", "coordinates": [[[[127.37944503441817, 36.35444952418443], [127.37944155891913, 36.356703371070914], [127.38222799967639, 36.3567061499379], [127.38222799967639, 36.35670614993791], [127.37944155891913, 36.356703371070914], [127.37943808303393, 36.358957217105036], [127.38222460412813, 36.3589599961996], [127.38222799967639, 36.35670614993791], [127.38501444081088, 36.3567088638269], [127.38501775565389, 36.354455016490625], [127.38501775565389, 36.354455016490625], [127.38501444081088, 36.35670886382691], [127.38222799967639, 36.356706149937914], [127.38222460412813, 36.35895999619961], [127.38222460412813, 36.35895999619961], [127.3822212082026, 36.36121384160894], [127.38500781001991, 36.36121655594244], [127.38500449407188, 36.363470400721646], [127.38779117661244, 36.363473050283446], [127.38779441220564, 36.36121920528729], [127.38779441220564, 36.36121920528729], [127.38779764743937, 36.35896535943876], [127.38779764743937, 36.35896535943876], [127.38780088231367, 36.35671151273788], [127.38780088231367, 36.35671151273788], [127.38780411682863, 36.354457665184675], [127.38780411682863, 36.354457665184675], [127.38780735098423, 36.35220381677919], [127.38502107012866, 36.35220116830203], [127.38502107012866, 36.35220116830203], [127.38223478964132, 36.35219845485749], [127.38223478964132, 36.35219845485749], [127.37944850953109, 36.352195676445604], [127.37944503441817, 36.35444952418443], [127.37944503441817, 36.35444952418443]], [[127.38501112559958, 36.35896271031085], [127.38501112559958, 36.35896271031085], [127.38500781001991, 36.361216555942434], [127.38500781001991, 36.361216555942434], [127.38501112559958, 36.35896271031085]], [[127.38501112559958, 36.35896271031085], [127.38501444081088, 36.35670886382691], [127.38501444081088, 36.35670886382691], [127.38501112559958, 36.35896271031085], [127.38501112559958, 36.35896271031085]], [[127.38223139484745, 36.35445230282386], [127.38223139484745, 36.35445230282386], [127.38501775565389, 36.354455016490625], [127.38501775565389, 36.354455016490625], [127.38223139484745, 36.35445230282386]]], [[[127.37943808303393, 36.35895721710504], [127.37943460676257, 36.361211062286785], [127.3822212082026, 36.361213841608944], [127.38222460412813, 36.35895999619961], [127.37943808303393, 36.35895721710504]]], [[[127.3822212082026, 36.361213841608944], [127.38221781189974, 36.36346768616587], [127.38221781189974, 36.36346768616587], [127.38221441521952, 36.3657215298704], [127.3850011777554, 36.365724244648476], [127.3850011777554, 36.365724244648476], [127.38499786107047, 36.36797808772288], [127.38778470434751, 36.367980737718625], [127.38778470434751, 36.367980737718625], [127.38778470434751, 36.367980737718625], [127.38778470434751, 36.367980737718625], [127.38499786107047, 36.36797808772288], [127.38499786107047, 36.36797808772288], [127.3850011777554, 36.365724244648476], [127.38221441521952, 36.36572152987041], [127.38221101816194, 36.36797537272251], [127.38221101816194, 36.36797537272251], [127.38220762072689, 36.370229214722166], [127.38220422291437, 36.37248305586933], [127.38499122659503, 36.37248577131436], [127.38499122659503, 36.37248577131436], [127.38777823064429, 36.372488421744094], [127.38777823064429, 36.372488421744094], [127.3905652350532, 36.37249100715854], [127.390568391694, 36.37023716536035], [127.390568391694, 36.37023716536035], [127.39057154798414, 36.36798332270972], [127.39057154798414, 36.36798332270972], [127.39057470392362, 36.365729479206685], [127.38778794065975, 36.365726894427254], [127.38778794065975, 36.36572689442724], [127.38778794065972, 36.36572689442724], [127.38779117661242, 36.36347305028346], [127.38500449407188, 36.363470400721646], [127.38500781001991, 36.36121655594245], [127.3822212082026, 36.361213841608944]]], [[[127.39614823149428, 36.365734453767416], [127.39614523630041, 36.36798829767781], [127.39335839197142, 36.367985842696115], [127.39335531606301, 36.3702396855531], [127.39614224077377, 36.37024214073582], [127.39614224077377, 36.37024214073582], [127.39335531606301, 36.3702396855531], [127.39335223981284, 36.37249352755765], [127.39613924491428, 36.3724959829414], [127.39614224077377, 36.37024214073582], [127.39892916581734, 36.37024453090847], [127.39893208096218, 36.367990687654775], [127.39614523630041, 36.36798829767782], [127.39614523630041, 36.36798829767781], [127.39893208096221, 36.36799068765477], [127.3989349957832, 36.36573684354869], [127.39614823149428, 36.365734453767416]]], [[[127.390568391694, 36.37023716536035], [127.3905652350532, 36.37249100715854], [127.39335223981284, 36.37249352755765], [127.39335531606301, 36.3702396855531], [127.390568391694, 36.37023716536035]]]]}}, {"type": "Feature", "properties": {"rank": 3, "method": "BFS+Zoning", "n_grids": 4, "avg_micro": 46.120413258588705, "cluster_score": 57.25460450391385, "buildable_ha": 10.0, "final_score": 51.442286239484, "avg_bcr": 0.4, "center_lat": 36.35668372459884, "center_lon": 127.36132970380808}, "geometry": {"type": "MultiPolygon", "coordinates": [[[[127.3599364849302, 36.35668209962054], [127.36272292279702, 36.35668533333268], [127.36272688026301, 36.3544314879233], [127.35994052272386, 36.354428254475955], [127.3599364849302, 36.35668209962054]]], [[[127.36272292279702, 36.35668533333268], [127.3655093611035, 36.35668850206703], [127.36551323824182, 36.35443465639817], [127.36272688026301, 36.3544314879233], [127.36272292279702, 36.35668533333268]]], [[[127.36272292279702, 36.356685333332685], [127.3599364849302, 36.35668209962055], [127.3599364849302, 36.356682099620556], [127.35715004751204, 36.356678800930666], [127.3571459289332, 36.35893264495264], [127.35993244668792, 36.35893594391267], [127.35993244668792, 36.35893594391266], [127.36271896489131, 36.35893917788962], [127.36272292279702, 36.356685333332685]]]]}}]}